[{"OBJECT_NAME":"STARLINK-3649","OBJECT_ID":"2022-025AA","EPOCH":"2026-03-09T22:21:48.426336","MEAN_MOTION":15.08835353,"ECCENTRICITY":0.00014383,"INCLINATION":53.2178,"RA_OF_ASC_NODE":38.031,"ARG_OF_PERICENTER":92.1104,"MEAN_ANOMALY":268.0053,"EPHEMERIS_TYPE":0,"CLASSIFICATION_TYPE":"U","NORAD_CAT_ID":51980,"ELEMENT_SET_NO":999,"REV_AT_EPOCH":22109,"BSTAR":-4.1581638e-5,"MEAN_MOTION_DOT":-9.5e-6,"MEAN_MOTION_DDOT":0},{"OBJECT_NAME":"FENGYUN 1C DEB","OBJECT_ID":"1999-025BZZ","EPOCH":"2026-03-09T13:05:44.544480","MEAN_MOTION":14.97363263,"ECCENTRICITY":0.00745573,"INCLINATION":99.0712,"RA_OF_ASC_NODE":279.0573,"ARG_OF_PERICENTER":15.484,"MEAN_ANOMALY":344.8634,"EPHEMERIS_TYPE":0,"CLASSIFICATION_TYPE":"U","NORAD_CAT_ID":31619,"ELEMENT_SET_NO":999,"REV_AT_EPOCH":64782,"BSTAR":0.0036839182,"MEAN_MOTION_DOT":0.00045478,"MEAN_MOTION_DDOT":0}]
